201604181000 AAXX 18101 12100 42470 62605 10088 21013 30164 40171 51006 86500 333 91010 91111 91206 555 90005= 
201604180800 AAXX 18081 12100 42470 22606 10077 20009 30162 40169 52013 82200 333 91011 91111 91206 555 90005=
201604180600 AAXX 18061 12100 12470 42103 10059 20025 30155 40162 53015 60002 84200 333 10091 20052 31005 55085  21832 70001 91110 91205 93000=
201604180500 AAXX 18051 12100 46/// /2202 10058 20026 30149 40156 53011 333 91109 91205 91304 555 9///5=
201604180400 AAXX 18041 12100 46/// /2604 10064 20030 30144 40151 52010 333 91109 91205 91304 555 9///5=
201604180200 AAXX 18021 12100 46/// /2604 10067 20024 30138 40145 52017 333 91109 91205 91304 555 9///5=
