201604181000 AAXX 18101 12100 42470 62605 10088 21013 30164 40171 51006 86500
                   333 91010 91111 91206
                   555 90005=201604181000 AAXX 18101 12105 42682 72607 10083 21015 30128 40170 51006 875//
                   333 91012 91112 91208
                   555 90005=201604181000 AAXX 18101 12115 42580 52710 10069 20024 30147 40161 52010 85200
                   333 91115 91210 555 9///5